[{"OBJECT_NAME":"IRIDIUM 125","OBJECT_ID":"2017-061K","EPOCH":"2026-03-09T21:31:26.578560","MEAN_MOTION":14.342175,"ECCENTRICITY":0.00017652,"INCLINATION":86.3918,"RA_OF_ASC_NODE":66.8822,"ARG_OF_PERICENTER":75.1905,"MEAN_ANOMALY":284.9486,"EPHEMERIS_TYPE":0,"CLASSIFICATION_TYPE":"U","NORAD_CAT_ID":42964,"ELEMENT_SET_NO":999,"REV_AT_EPOCH":44062,"BSTAR":-1.144702e-6,"MEAN_MOTION_DOT":1.7e-7,"MEAN_MOTION_DDOT":0},{"OBJECT_NAME":"COSMOS 1763","OBJECT_ID":"1986-052A","EPOCH":"2026-03-09T23:28:12.624960","MEAN_MOTION":14.39290989,"ECCENTRICITY":0.00293207,"INCLINATION":74.0341,"RA_OF_ASC_NODE":29.585,"ARG_OF_PERICENTER":60.2432,"MEAN_ANOMALY":300.1634,"EPHEMERIS_TYPE":0,"CLASSIFICATION_TYPE":"U","NORAD_CAT_ID":16860,"ELEMENT_SET_NO":999,"REV_AT_EPOCH":7953,"BSTAR":9.8060384e-5,"MEAN_MOTION_DOT":2.8e-6,"MEAN_MOTION_DDOT":0}]
